[{"OBJECT_NAME":"STARLINK-32768","OBJECT_ID":"2025-003S","EPOCH":"2026-03-09T22:35:45.981024","MEAN_MOTION":15.27602656,"ECCENTRICITY":0.00012646,"INCLINATION":43.0013,"RA_OF_ASC_NODE":287.2377,"ARG_OF_PERICENTER":315.1441,"MEAN_ANOMALY":44.9309,"EPHEMERIS_TYPE":0,"CLASSIFICATION_TYPE":"U","NORAD_CAT_ID":62503,"ELEMENT_SET_NO":999,"REV_AT_EPOCH":6659,"BSTAR":0.0011049213,"MEAN_MOTION_DOT":0.00030289,"MEAN_MOTION_DDOT":0},{"OBJECT_NAME":"SL-12 DEB","OBJECT_ID":"1987-079V","EPOCH":"2026-03-08T00:47:26.897280","MEAN_MOTION":6.99798463,"ECCENTRICITY":0.41671857,"INCLINATION":64.2913,"RA_OF_ASC_NODE":83.7281,"ARG_OF_PERICENTER":346.8092,"MEAN_ANOMALY":4.9939,"EPHEMERIS_TYPE":0,"CLASSIFICATION_TYPE":"U","NORAD_CAT_ID":25810,"ELEMENT_SET_NO":999,"REV_AT_EPOCH":55456,"BSTAR":0.01310001,"MEAN_MOTION_DOT":0.00055255,"MEAN_MOTION_DDOT":0}]
